line1,line2,validFromUtcTime
1 00000U 00000E   26001.00000000  .00000000  00000-0  27772-4 0    01,2 00000  88.8546  90.3332 0010057 270.1027  74.8993 13.55299295    03,2026-01-01T00:00:00Z
1 00000U 00000E   26002.00000000  .00000000  00000-0  27772-4 0    02,2 00000  88.8546  90.2166 0010057 267.1930 273.9752 13.55299333    04,2026-01-02T00:00:00Z
